EYESAT A (AO-27)        
1 22825U 93061C   26184.64172526  .00000129  00000+0  66110-4 0  9991
2 22825  98.6874 252.0488 0009299  57.1001 303.1075 14.30946735709350
ITAMSAT (IO-26)         
1 22826U 93061D   26185.45505957  .00000132  00000+0  66438-4 0  9997
2 22826  98.6820 252.7811 0009558  39.4050 320.7827 14.31374357709787
RADIO ROSTO (RS15)      
1 23439U 94085A   26185.49904292 -.00000020  00000+0  65198-3 0  9992
2 23439  64.8176 275.2189 0156524   0.6769 359.4341 11.27583562297850
JAS-2 (FO-29)           
1 24278U 96046B   26185.53759951 -.00000022  00000+0  11740-4 0  9995
2 24278  98.5226  32.0316 0350732  51.5389 311.6677 13.53275016475519
FORTE                   
1 24920U 97047A   26185.39696250  .00000208  00000+0  10698-3 0  9992
2 24920  69.9545 335.1474 0024573 256.5546 103.2838 14.27952275501148
TECHSAT 1B (GO-32)      
1 25397U 98043D   26185.41439164  .00000072  00000+0  51499-4 0  9994
2 25397  99.0076 178.6080 0001838 131.9279 228.2056 14.24431783453780
ISS (ZARYA)             
1 25544U 98067A   26185.47597407  .00009720  00000+0  18499-3 0  9996
2 25544  51.6303 214.5154 0006744 255.1217 104.9025 15.48889796574435
IMAGE                   
1 26113U 00017A   26181.91168621 -.00000033  00000+0  00000+0 0  9998
2 26113  94.2398 315.5527 7422471 286.2504   9.4555  1.68666270161730
CLUSTER II-FM7 (SAMBA)  
1 26410U 00041A   26188.21797159  .00007566  00000+0  00000+0 0  9996
2 26410 149.8716  54.4790 9079263 271.8893 359.5006  0.44837774 20390
CLUSTER II-FM8 (TANGO)  
1 26464U 00045B   26184.19681525  .00012165  00000+0  00000+0 0  9992
2 26464 150.1065  54.7656 9078554 272.0035   2.3073  0.44420887 20387
ODIN                    
1 26702U 01007A   26185.58418876  .00550414  00000+0  23840-2 0  9991
2 26702  97.3755 227.7265 0005271 136.8814 223.2869 15.83489487392140
OMNI-M1                 
1 26857U 01026A   26183.00645506  .00000007  00000+0  00000+0 0  9998
2 26857  44.8270 241.8483 0013799  56.1769 304.0224  3.92402003206150
PCSAT (NO-44)           
1 26931U 01043C   26185.48093683  .00000178  00000+0  97381-4 0  9999
2 26931  67.0488 199.5420 0006014 265.8312  94.2103 14.31962328292926
PROBA-1                 
1 26958U 01049B   26185.59330198  .00002502  00000+0  16323-3 0  9990
2 26958  97.9592 194.7343 0056322  64.7601 295.9449 15.07571683346240
SAUDISAT 1C (SO-50)     
1 27607U 02058C   26185.41777487  .00001077  00000+0  14408-3 0  9998
2 27607  64.5521  75.6740 0074819 259.2514 100.0163 14.83083246267019
CORIOLIS                
1 27640U 03001A   26185.46109789  .00000119  00000+0  76266-4 0  9990
2 27640  98.7128 192.0822 0014401 158.6711 201.5069 14.19949628216677
CUTE-1 (CO-55)          
1 27844U 03031E   26185.45862507  .00000342  00000+0  16664-3 0  9995
2 27844  98.6738 193.8003 0010505 130.4916 229.7180 14.24346609194133
CUBESAT XI-IV (CO-57)   
1 27848U 03031J   26185.45575708  .00000289  00000+0  14607-3 0  9998
2 27848  98.6769 193.4963 0010079 147.8071 212.3725 14.23630269193838
MOZHAETS 4 (RS22)       
1 27939U 03042A   26185.66386074  .00000723  00000+0  11957-3 0  9998
2 27939  98.3470  10.5164 0010427 207.8599 211.3484 14.73498166218120
